start=new Date('2021-12-30T00:00:00.000Z').valueOf();
sats=[{"FILE":"3255236","TLE_LINE2":"2 48028  53.0565 298.5220 0001349  63.8121 285.5091 15.06421889  3584","REF_FRAME":"TEME","OBJECT_TYPE":"PAYLOAD","GP_ID":"192744597","EPOCH":"2021-12-29T22:00:00.999936","ECCENTRICITY":"0.00013490","PERIAPSIS":"546.212","ARG_OF_PERICENTER":"63.8121","DECAY_DATE":null,"MEAN_ANOMALY":"285.5091","OBJECT_NAME":"STARLINK-2264","MEAN_MOTION_DDOT":"0.0000000000000","COUNTRY_CODE":"US","ELEMENT_SET_NO":"999","MEAN_MOTION":"15.06421889","EPHEMERIS_TYPE":"0","MEAN_MOTION_DOT":"-0.00051264","TIME_SYSTEM":"UTC","RCS_SIZE":"LARGE","NORAD_CAT_ID":"48028","CLASSIFICATION_TYPE":"U","APOAPSIS":"548.081","INCLINATION":"53.0565","SEMIMAJOR_AXIS":"6925.281","CENTER_NAME":"EARTH","BSTAR":"-0.00344550000000","PERIOD":"95.591","REV_AT_EPOCH":"358","MEAN_ELEMENT_THEORY":"SGP4","TLE_LINE1":"1 48028U 21024BD  21363.91667824 -.00051264  00000-0 -34455-2 0  9992","OBJECT_ID":"2021-024BD","RA_OF_ASC_NODE":"298.5220","SITE":"AFETR","LAUNCH_DATE":"2021-03-24"},{"SEMIMAJOR_AXIS":"6925.329","INCLINATION":"53.0545","CLASSIFICATION_TYPE":"U","APOAPSIS":"548.218","LAUNCH_DATE":"2021-03-24","SITE":"AFETR","RA_OF_ASC_NODE":"3.4127","MEAN_ELEMENT_THEORY":"SGP4","PERIOD":"95.592","REV_AT_EPOCH":"4391","OBJECT_ID":"2021-024BE","TLE_LINE1":"1 48029U 21024BE  21363.94495328  .00002699  00000-0  20001-3 0  9993","CENTER_NAME":"EARTH","BSTAR":"0.00020001000000","PERIAPSIS":"546.171","EPOCH":"2021-12-29T22:40:43.963392","GP_ID":"192744849","ECCENTRICITY":"0.00014780","REF_FRAME":"TEME","OBJECT_TYPE":"PAYLOAD","FILE":"3255236","TLE_LINE2":"2 48029  53.0545   3.4127 0001478  67.0122 293.1023 15.06406233 43919","TIME_SYSTEM":"UTC","MEAN_MOTION_DOT":"0.00002699","MEAN_MOTION":"15.06406233","EPHEMERIS_TYPE":"0","NORAD_CAT_ID":"48029","RCS_SIZE":"LARGE","MEAN_MOTION_DDOT":"0.0000000000000","COUNTRY_CODE":"US","ELEMENT_SET_NO":"999","OBJECT_NAME":"STARLINK-2299","DECAY_DATE":null,"ARG_OF_PERICENTER":"67.0122","MEAN_ANOMALY":"293.1023"},{"LAUNCH_DATE":"2021-03-24","SITE":"AFETR","RA_OF_ASC_NODE":"10.3481","OBJECT_ID":"2021-024BF","TLE_LINE1":"1 48030U 21024BF  21363.50770744  .00005835  00000-0  41025-3 0  9999","MEAN_ELEMENT_THEORY":"SGP4","REV_AT_EPOCH":"4324","PERIOD":"95.592","BSTAR":"0.00041025000000","CENTER_NAME":"EARTH","SEMIMAJOR_AXIS":"6925.334","INCLINATION":"53.0551","APOAPSIS":"548.186","CLASSIFICATION_TYPE":"U","NORAD_CAT_ID":"48030","RCS_SIZE":"LARGE","TIME_SYSTEM":"UTC","MEAN_MOTION_DOT":"0.00005835","MEAN_MOTION":"15.06404662","EPHEMERIS_TYPE":"0","ELEMENT_SET_NO":"999","COUNTRY_CODE":"US","MEAN_MOTION_DDOT":"0.0000000000000","OBJECT_NAME":"STARLINK-2268","MEAN_ANOMALY":"304.8911","DECAY_DATE":null,"ARG_OF_PERICENTER":"55.2212","PERIAPSIS":"546.212","ECCENTRICITY":"0.00014250","GP_ID":"192720809","EPOCH":"2021-12-29T12:11:05.922816","OBJECT_TYPE":"PAYLOAD","REF_FRAME":"TEME","FILE":"3255138","TLE_LINE2":"2 48030  53.0551  10.3481 0001425  55.2212 304.8911 15.06404662 43245"},{"LAUNCH_DATE":"2021-03-24","SITE":"AFETR","RA_OF_ASC_NODE":"254.9461","REV_AT_EPOCH":"4537","PERIOD":"94.040","MEAN_ELEMENT_THEORY":"SGP4","TLE_LINE1":"1 48031U 21024BG  21363.94737339 -.00191883  00000-0 -64167-2 0  9993","OBJECT_ID":"2021-024BG","CENTER_NAME":"EARTH","BSTAR":"-0.00641670000000","INCLINATION":"53.0513","SEMIMAJOR_AXIS":"6850.159","CLASSIFICATION_TYPE":"U","APOAPSIS":"472.600","EPHEMERIS_TYPE":"0","MEAN_MOTION":"15.31269908","TIME_SYSTEM":"UTC","MEAN_MOTION_DOT":"-0.00191883","RCS_SIZE":"MEDIUM","NORAD_CAT_ID":"48031","MEAN_MOTION_DDOT":"0.0000000000000","ELEMENT_SET_NO":"999","COUNTRY_CODE":"US","OBJECT_NAME":"STARLINK-2267","ARG_OF_PERICENTER":"69.9042","DECAY_DATE":null,"MEAN_ANOMALY":"290.2048","PERIAPSIS":"471.448","EPOCH":"2021-12-29T22:44:13.060896","GP_ID":"192744349","ECCENTRICITY":"0.00008410","REF_FRAME":"TEME","OBJECT_TYPE":"PAYLOAD","TLE_LINE2":"2 48031  53.0513 254.9461 0000841  69.9042 290.2048 15.31269908 45377","FILE":"3255236"},{"APOAPSIS":"300.797","CLASSIFICATION_TYPE":"U","INCLINATION":"53.0388","SEMIMAJOR_AXIS":"6677.438","BSTAR":"-0.00076633000000","CENTER_NAME":"EARTH","TLE_LINE1":"1 48032U 21024BH  21363.91667824 -.00251887  31364-4 -76633-3 0  9996","OBJECT_ID":"2021-024BH","PERIOD":"90.505","REV_AT_EPOCH":"372","MEAN_ELEMENT_THEORY":"SGP4","RA_OF_ASC_NODE":"247.2281","LAUNCH_DATE":"2021-03-24","SITE":"AFETR","FILE":"3255236","TLE_LINE2":"2 48032  53.0388 247.2281 0002237 161.1654 352.4078 15.91065033  3724","OBJECT_TYPE":"PAYLOAD","REF_FRAME":"TEME","ECCENTRICITY":"0.00022370","EPOCH":"2021-12-29T22:00:00.999936","GP_ID":"192745098","PERIAPSIS":"297.810","MEAN_ANOMALY":"352.4078","ARG_OF_PERICENTER":"161.1654","DECAY_DATE":null,"OBJECT_NAME":"STARLINK-2297","COUNTRY_CODE":"US","ELEMENT_SET_NO":"999","MEAN_MOTION_DDOT":"0.0000313640000","NORAD_CAT_ID":"48032","RCS_SIZE":"LARGE","EPHEMERIS_TYPE":"0","MEAN_MOTION":"15.91065033","TIME_SYSTEM":"UTC","MEAN_MOTION_DOT":"-0.00251887"},{"CENTER_NAME":"EARTH","BSTAR":"0.00055584000000","OBJECT_ID":"2021-024BJ","TLE_LINE1":"1 48033U 21024BJ  21363.53581503  .00008009  00000-0  55584-3 0  9999","MEAN_ELEMENT_THEORY":"SGP4","REV_AT_EPOCH":"4332","PERIOD":"95.592","RA_OF_ASC_NODE":"5.1397","LAUNCH_DATE":"2021-03-24","SITE":"AFETR","APOAPSIS":"548.496","CLASSIFICATION_TYPE":"U","SEMIMAJOR_AXIS":"6925.324","INCLINATION":"53.0561","MEAN_ANOMALY":"310.8808","DECAY_DATE":null,"ARG_OF_PERICENTER":"49.2344","OBJECT_NAME":"STARLINK-2286","ELEMENT_SET_NO":"999","COUNTRY_CODE":"US","MEAN_MOTION_DDOT":"0.0000000000000","NORAD_CAT_ID":"48033","RCS_SIZE":"LARGE","TIME_SYSTEM":"UTC","MEAN_MOTION_DOT":"0.00008009","MEAN_MOTION":"15.06407863","EPHEMERIS_TYPE":"0","TLE_LINE2":"2 48033  53.0561   5.1397 0001886  49.2344 310.8808 15.06407863 43324","FILE":"3255138","OBJECT_TYPE":"PAYLOAD","REF_FRAME":"TEME","ECCENTRICITY":"0.00018860","GP_ID":"192720810","EPOCH":"2021-12-29T12:51:34.418592","PERIAPSIS":"545.883"},{"SEMIMAJOR_AXIS":"6925.344","INCLINATION":"53.0546","APOAPSIS":"548.365","CLASSIFICATION_TYPE":"U","OBJECT_ID":"2021-024BK","TLE_LINE1":"1 48034U 21024BK  21363.28885675  .00000689  00000-0  65140-4 0  9995","MEAN_ELEMENT_THEORY":"SGP4","PERIOD":"95.592","REV_AT_EPOCH":"4381","CENTER_NAME":"EARTH","BSTAR":"0.00006514000000","SITE":"AFETR","LAUNCH_DATE":"2021-03-24","RA_OF_ASC_NODE":"6.3519","OBJECT_TYPE":"PAYLOAD","REF_FRAME":"TEME","TLE_LINE2":"2 48034  53.0546   6.3519 0001669  69.8245 290.2924 15.06401376 43811","FILE":"3254971","PERIAPSIS":"546.054","ECCENTRICITY":"0.00016690","EPOCH":"2021-12-29T06:55:57.223200","GP_ID":"192715061","OBJECT_NAME":"STARLINK-2288","MEAN_ANOMALY":"290.2924","DECAY_DATE":null,"ARG_OF_PERICENTER":"69.8245","NORAD_CAT_ID":"48034","RCS_SIZE":"LARGE","TIME_SYSTEM":"UTC","MEAN_MOTION_DOT":"0.00000689","MEAN_MOTION":"15.06401376","EPHEMERIS_TYPE":"0","ELEMENT_SET_NO":"999","COUNTRY_CODE":"US","MEAN_MOTION_DDOT":"0.0000000000000"},{"TLE_LINE2":"2 48035  53.0473 246.0886 0002637 159.3887 215.0568 15.90855156 45019","FILE":"3255069","REF_FRAME":"TEME","OBJECT_TYPE":"PAYLOAD","GP_ID":"192718424","EPOCH":"2021-12-29T22:00:00.999936","ECCENTRICITY":"0.00026370","PERIAPSIS":"298.130","DECAY_DATE":null,"ARG_OF_PERICENTER":"159.3887","MEAN_ANOMALY":"215.0568","OBJECT_NAME":"STARLINK-2287","MEAN_MOTION_DDOT":"0.0000110590000","ELEMENT_SET_NO":"999","COUNTRY_CODE":"US","MEAN_MOTION_DOT":"-0.00000936","TIME_SYSTEM":"UTC","EPHEMERIS_TYPE":"0","MEAN_MOTION":"15.90855156","RCS_SIZE":"LARGE","NORAD_CAT_ID":"48035","CLASSIFICATION_TYPE":"U","APOAPSIS":"301.652","SEMIMAJOR_AXIS":"6678.026","INCLINATION":"53.0473","CENTER_NAME":"EARTH","BSTAR":"0.00000798330000","MEAN_ELEMENT_THEORY":"SGP4","REV_AT_EPOCH":"4501","PERIOD":"90.517","OBJECT_ID":"2021-024BL","TLE_LINE1":"1 48035U 21024BL  21363.91667824 -.00000936  11059-4  79833-5 0  9991","RA_OF_ASC_NODE":"246.0886","SITE":"AFETR","LAUNCH_DATE":"2021-03-24"},{"LAUNCH_DATE":"2021-03-24","SITE":"AFETR","RA_OF_ASC_NODE":"6.0172","MEAN_ELEMENT_THEORY":"SGP4","REV_AT_EPOCH":"4382","PERIOD":"95.592","OBJECT_ID":"2021-024BM","TLE_LINE1":"1 48036U 21024BM  21363.36257339  .00002774  00000-0  20503-3 0  9996","CENTER_NAME":"EARTH","BSTAR":"0.00020503000000","SEMIMAJOR_AXIS":"6925.340","INCLINATION":"53.0550","CLASSIFICATION_TYPE":"U","APOAPSIS":"548.295","TIME_SYSTEM":"UTC","MEAN_MOTION_DOT":"0.00002774","MEAN_MOTION":"15.06402913","EPHEMERIS_TYPE":"0","NORAD_CAT_ID":"48036","RCS_SIZE":"LARGE","MEAN_MOTION_DDOT":"0.0000000000000","ELEMENT_SET_NO":"999","COUNTRY_CODE":"US","OBJECT_NAME":"STARLINK-2295","DECAY_DATE":null,"ARG_OF_PERICENTER":"73.2761","MEAN_ANOMALY":"286.8400","PERIAPSIS":"546.114","EPOCH":"2021-12-29T08:42:06.340896","GP_ID":"192714062","ECCENTRICITY":"0.00015750","REF_FRAME":"TEME","OBJECT_TYPE":"PAYLOAD","FILE":"3254971","TLE_LINE2":"2 48036  53.0550   6.0172 0001575  73.2761 286.8400 15.06402913 43827"},{"CLASSIFICATION_TYPE":"U","APOAPSIS":"548.798","SEMIMAJOR_AXIS":"6925.343","INCLINATION":"53.0565","CENTER_NAME":"EARTH","BSTAR":"0.00009871800000","MEAN_ELEMENT_THEORY":"SGP4","REV_AT_EPOCH":"4271","PERIOD":"95.592","OBJECT_ID":"2021-027A","TLE_LINE1":"1 48092U 21027A   21363.73897419  .00001189  00000-0  98718-4 0  9994","RA_OF_ASC_NODE":"129.3088","SITE":"AFETR","LAUNCH_DATE":"2021-04-07","TLE_LINE2":"2 48092  53.0565 129.3088 0002296  98.3485 261.7764 15.06401777 42711","FILE":"3255236","REF_FRAME":"TEME","OBJECT_TYPE":"PAYLOAD","EPOCH":"2021-12-29T17:44:07.370016","GP_ID":"192743604","ECCENTRICITY":"0.00022960","PERIAPSIS":"545.618","DECAY_DATE":null,"ARG_OF_PERICENTER":"98.3485","MEAN_ANOMALY":"261.7764","OBJECT_NAME":"STARLINK-2048","MEAN_MOTION_DDOT":"0.0000000000000","COUNTRY_CODE":"US","ELEMENT_SET_NO":"999","MEAN_MOTION_DOT":"0.00001189","TIME_SYSTEM":"UTC","MEAN_MOTION":"15.06401777","EPHEMERIS_TYPE":"0","NORAD_CAT_ID":"48092","RCS_SIZE":"LARGE"}];
